CTC2_L_00196001-01
1 24833U 26456LV  26037.47792824  .00000000  00000+0  00000-0 0  9993
2 24833  75.0000   0.0000 0000000   0.0000   0.0000 14.70334339    12
CTC2_L_00196001-02
1 24834U 23883WH  26037.47792824  .00000000  00000+0  00000-0 0  9995
2 24834  75.0000   0.0000 0000000   0.0000  90.0000 14.70334339    12
CTC2_L_00196001-03
1 24835U 24969LS  26037.47792824  .00000000  00000+0  00000-0 0  9992
2 24835  75.0000   0.0000 0000000   0.0000 180.0000 14.70334339    13
CTC2_L_00196001-04
1 24836U 22110LG  26037.47792824  .00000000  00000+0  00000-0 0  9999
2 24836  75.0000   0.0000 0000000   0.0000 270.0000 14.70334339    14
CTC2_L_00196002-01
1 24837U 23031VT  26037.47792824  .00000000  00000+0  00000-0 0  9993
2 24837  75.0000  12.0000 0000000   0.0000  12.0000 14.70334339    12
CTC2_L_00196002-02
1 24838U 24634KK  26037.47792824  .00000000  00000+0  00000-0 0  9994
2 24838  75.0000  12.0000 0000000   0.0000 102.0000 14.70334339    13
CTC2_L_00196002-03
1 24839U 25561KQ  26037.47792824  .00000000  00000+0  00000-0 0  9995
2 24839  75.0000  12.0000 0000000   0.0000 192.0000 14.70334339    13
CTC2_L_00196002-04
1 24840U 26005FN  26037.47792824  .00000000  00000+0  00000-0 0  9991
2 24840  75.0000  12.0000 0000000   0.0000 282.0000 14.70334339    15
CTC2_L_00196003-01
1 24841U 22195JP  26037.47792824  .00000000  00000+0  00000-0 0  9998
2 24841  75.0000  24.0000 0000000   0.0000  24.0000 14.70334339    13
CTC2_L_00196003-02
1 24842U 22733MY  26037.47792824  .00000000  00000+0  00000-0 0  9997
2 24842  75.0000  24.0000 0000000   0.0000 114.0000 14.70334339    14
CTC2_L_00196003-03
1 24843U 22612JQ  26037.47792824  .00000000  00000+0  00000-0 0  9994
2 24843  75.0000  24.0000 0000000   0.0000 204.0000 14.70334339    15
CTC2_L_00196003-04
1 24844U 22624IP  26037.47792824  .00000000  00000+0  00000-0 0  9998
2 24844  75.0000  24.0000 0000000   0.0000 294.0000 14.70334339    15
CTC2_L_00196004-01
1 24845U 26439KN  26037.47792824  .00000000  00000+0  00000-0 0  9997
2 24845  75.0000  36.0000 0000000   0.0000  36.0000 14.70334339    13
CTC2_L_00196004-02
1 24846U 25604DK  26037.47792824  .00000000  00000+0  00000-0 0  9991
2 24846  75.0000  36.0000 0000000   0.0000 126.0000 14.70334339    14
CTC2_L_00196004-03
1 24847U 26366VN  26037.47792824  .00000000  00000+0  00000-0 0  9998
2 24847  75.0000  36.0000 0000000   0.0000 216.0000 14.70334339    15
CTC2_L_00196004-04
1 24848U 24315GX  26037.47792824  .00000000  00000+0  00000-0 0  9991
2 24848  75.0000  36.0000 0000000   0.0000 306.0000 14.70334339    16
CTC2_L_00196005-01
1 24849U 24933WM  26037.47792824  .00000000  00000+0  00000-0 0  9998
2 24849  75.0000  48.0000 0000000   0.0000  48.0000 14.70334339    13
CTC2_L_00196005-02
1 24850U 23670PH  26037.47792824  .00000000  00000+0  00000-0 0  9997
2 24850  75.0000  48.0000 0000000   0.0000 138.0000 14.70334339    15
CTC2_L_00196005-03
1 24851U 22373AJ  26037.47792824  .00000000  00000+0  00000-0 0  9997
2 24851  75.0000  48.0000 0000000   0.0000 228.0000 14.70334339    16
CTC2_L_00196005-04
1 24852U 26307TV  26037.47792824  .00000000  00000+0  00000-0 0  9999
2 24852  75.0000  48.0000 0000000   0.0000 318.0000 14.70334339    17
CTC2_L_00196006-01
1 24853U 23300FJ  26037.47792824  .00000000  00000+0  00000-0 0  9990
2 24853  75.0000  60.0000 0000000   0.0000  60.0000 14.70334339    16
CTC2_L_00196006-02
1 24854U 25134FD  26037.47792824  .00000000  00000+0  00000-0 0  9998
2 24854  75.0000  60.0000 0000000   0.0000 150.0000 14.70334339    17
CTC2_L_00196006-03
1 24855U 24880XX  26037.47792824  .00000000  00000+0  00000-0 0  9996
2 24855  75.0000  60.0000 0000000   0.0000 240.0000 14.70334339    18
CTC2_L_00196006-04
1 24856U 22129YV  26037.47792824  .00000000  00000+0  00000-0 0  9991
2 24856  75.0000  60.0000 0000000   0.0000 330.0000 14.70334339    19
CTC2_L_00196007-01
1 24857U 25767JM  26037.47792824  .00000000  00000+0  00000-0 0  9993
2 24857  75.0000  72.0000 0000000   0.0000  72.0000 14.70334339    16
CTC2_L_00196007-02
1 24858U 22818WK  26037.47792824  .00000000  00000+0  00000-0 0  9998
2 24858  75.0000  72.0000 0000000   0.0000 162.0000 14.70334339    17
CTC2_L_00196007-03
1 24859U 26861XJ  26037.47792824  .00000000  00000+0  00000-0 0  9991
2 24859  75.0000  72.0000 0000000   0.0000 252.0000 14.70334339    18
CTC2_L_00196007-04
1 24860U 22589GY  26037.47792824  .00000000  00000+0  00000-0 0  9996
2 24860  75.0000  72.0000 0000000   0.0000 342.0000 14.70334339    10
CTC2_L_00196008-01
1 24861U 26700JS  26037.47792824  .00000000  00000+0  00000-0 0  9996
2 24861  75.0000  84.0000 0000000   0.0000  84.0000 14.70334339    17
CTC2_L_00196008-02
1 24862U 25895BV  26037.47792824  .00000000  00000+0  00000-0 0  9991
2 24862  75.0000  84.0000 0000000   0.0000 174.0000 14.70334339    18
CTC2_L_00196008-03
1 24863U 25354YJ  26037.47792824  .00000000  00000+0  00000-0 0  9992
2 24863  75.0000  84.0000 0000000   0.0000 264.0000 14.70334339    19
CTC2_L_00196008-04
1 24864U 23292WR  26037.47792824  .00000000  00000+0  00000-0 0  9992
2 24864  75.0000  84.0000 0000000   0.0000 354.0000 14.70334339    10
CTC2_L_00196009-01
1 24865U 26918SQ  26037.47792824  .00000000  00000+0  00000-0 0  9991
2 24865  75.0000  96.0000 0000000   0.0000  96.0000 14.70334339    17
CTC2_L_00196009-02
1 24866U 24052XQ  26037.47792824  .00000000  00000+0  00000-0 0  9999
2 24866  75.0000  96.0000 0000000   0.0000 186.0000 14.70334339    18
CTC2_L_00196009-03
1 24867U 25467SC  26037.47792824  .00000000  00000+0  00000-0 0  9991
2 24867  75.0000  96.0000 0000000   0.0000 276.0000 14.70334339    19
CTC2_L_00196009-04
1 24868U 24095MQ  26037.47792824  .00000000  00000+0  00000-0 0  9998
2 24868  75.0000  96.0000 0000000   0.0000   6.0000 14.70334339    11
CTC2_L_00196010-01
1 24869U 23120OR  26037.47792824  .00000000  00000+0  00000-0 0  9997
2 24869  75.0000 108.0000 0000000   0.0000 108.0000 14.70334339    19
CTC2_L_00196010-02
1 24870U 22388S   26037.47792824  .00000000  00000+0  00000-0 0  9994
2 24870  75.0000 108.0000 0000000   0.0000 198.0000 14.70334339    10
CTC2_L_00196010-03
1 24871U 25948TQ  26037.47792824  .00000000  00000+0  00000-0 0  9990
2 24871  75.0000 108.0000 0000000   0.0000 288.0000 14.70334339    11
CTC2_L_00196010-04
1 24872U 25336JZ  26037.47792824  .00000000  00000+0  00000-0 0  9992
2 24872  75.0000 108.0000 0000000   0.0000  18.0000 14.70334339    13
CTC2_L_00196011-01
1 24873U 26755ZB  26037.47792824  .00000000  00000+0  00000-0 0  9999
2 24873  75.0000 120.0000 0000000   0.0000 120.0000 14.70334339    12
CTC2_L_00196011-02
1 24874U 22426QL  26037.47792824  .00000000  00000+0  00000-0 0  9991
2 24874  75.0000 120.0000 0000000   0.0000 210.0000 14.70334339    13
CTC2_L_00196011-03
1 24875U 26215WU  26037.47792824  .00000000  00000+0  00000-0 0  9992
2 24875  75.0000 120.0000 0000000   0.0000 300.0000 14.70334339    14
CTC2_L_00196011-04
1 24876U 23327JV  26037.47792824  .00000000  00000+0  00000-0 0  9994
2 24876  75.0000 120.0000 0000000   0.0000  30.0000 14.70334339    15
CTC2_L_00196012-01
1 24877U 25161T   26037.47792824  .00000000  00000+0  00000-0 0  9993
2 24877  75.0000 132.0000 0000000   0.0000 132.0000 14.70334339    12
CTC2_L_00196012-02
1 24878U 26116NP  26037.47792824  .00000000  00000+0  00000-0 0  9995
2 24878  75.0000 132.0000 0000000   0.0000 222.0000 14.70334339    13
CTC2_L_00196012-03
1 24879U 24628IJ  26037.47792824  .00000000  00000+0  00000-0 0  9992
2 24879  75.0000 132.0000 0000000   0.0000 312.0000 14.70334339    14
CTC2_L_00196012-04
1 24880U 24869VF  26037.47792824  .00000000  00000+0  00000-0 0  9991
2 24880  75.0000 132.0000 0000000   0.0000  42.0000 14.70334339    16
CTC2_L_00196013-01
1 24881U 25623RU  26037.47792824  .00000000  00000+0  00000-0 0  9991
2 24881  75.0000 144.0000 0000000   0.0000 144.0000 14.70334339    13
CTC2_L_00196013-02
1 24882U 26882UH  26037.47792824  .00000000  00000+0  00000-0 0  9990
2 24882  75.0000 144.0000 0000000   0.0000 234.0000 14.70334339    14
CTC2_L_00196013-03
1 24883U 25075SP  26037.47792824  .00000000  00000+0  00000-0 0  9994
2 24883  75.0000 144.0000 0000000   0.0000 324.0000 14.70334339    15
CTC2_L_00196013-04
1 24884U 25903YE  26037.47792824  .00000000  00000+0  00000-0 0  9995
2 24884  75.0000 144.0000 0000000   0.0000  54.0000 14.70334339    16
CTC2_L_00196014-01
1 24885U 26279CV  26037.47792824  .00000000  00000+0  00000-0 0  9993
2 24885  75.0000 156.0000 0000000   0.0000 156.0000 14.70334339    13
CTC2_L_00196014-02
1 24886U 23442MM  26037.47792824  .00000000  00000+0  00000-0 0  9993
2 24886  75.0000 156.0000 0000000   0.0000 246.0000 14.70334339    14
CTC2_L_00196014-03
1 24887U 25054WQ  26037.47792824  .00000000  00000+0  00000-0 0  9995
2 24887  75.0000 156.0000 0000000   0.0000 336.0000 14.70334339    15
CTC2_L_00196014-04
1 24888U 23099SY  26037.47792824  .00000000  00000+0  00000-0 0  9993
2 24888  75.0000 156.0000 0000000   0.0000  66.0000 14.70334339    16
CTC2_L_00196015-01
1 24889U 22888YB  26037.47792824  .00000000  00000+0  00000-0 0  9999
2 24889  75.0000 168.0000 0000000   0.0000 168.0000 14.70334339    13
CTC2_L_00196015-02
1 24890U 25893ZD  26037.47792824  .00000000  00000+0  00000-0 0  9990
2 24890  75.0000 168.0000 0000000   0.0000 258.0000 14.70334339    15
CTC2_L_00196015-03
1 24891U 24167VP  26037.47792824  .00000000  00000+0  00000-0 0  9994
2 24891  75.0000 168.0000 0000000   0.0000 348.0000 14.70334339    16
CTC2_L_00196015-04
1 24892U 24523YF  26037.47792824  .00000000  00000+0  00000-0 0  9991
2 24892  75.0000 168.0000 0000000   0.0000  78.0000 14.70334339    17
CTC2_L_00196016-01
1 24893U 25985PR  26037.47792824  .00000000  00000+0  00000-0 0  9995
2 24893  75.0000 180.0000 0000000   0.0000 180.0000 14.70334339    16
CTC2_L_00196016-02
1 24894U 26952CO  26037.47792824  .00000000  00000+0  00000-0 0  9991
2 24894  75.0000 180.0000 0000000   0.0000 270.0000 14.70334339    17
